[{"OBJECT_NAME":"LUDI TANCE 1-01A (L-SAR 01A)","OBJECT_ID":"2022-007A","EPOCH":"2026-03-07T11:12:13.120128","MEAN_MOTION":14.88423371,"ECCENTRICITY":0.00016135,"INCLINATION":97.8118,"RA_OF_ASC_NODE":75.3379,"ARG_OF_PERICENTER":90.555,"MEAN_ANOMALY":269.5851,"EPHEMERIS_TYPE":0,"CLASSIFICATION_TYPE":"U","NORAD_CAT_ID":51284,"ELEMENT_SET_NO":999,"REV_AT_EPOCH":22334,"BSTAR":0.00012861429,"MEAN_MOTION_DOT":1.138e-5,"MEAN_MOTION_DDOT":0},{"OBJECT_NAME":"STARLINK-33997","OBJECT_ID":"2025-098C","EPOCH":"2026-03-09T22:20:46.078368","MEAN_MOTION":14.96551413,"ECCENTRICITY":0.00068477,"INCLINATION":70.0004,"RA_OF_ASC_NODE":274.0384,"ARG_OF_PERICENTER":77.5305,"MEAN_ANOMALY":282.6619,"EPHEMERIS_TYPE":0,"CLASSIFICATION_TYPE":"U","NORAD_CAT_ID":63928,"ELEMENT_SET_NO":999,"REV_AT_EPOCH":4660,"BSTAR":-0.062237161,"MEAN_MOTION_DOT":-0.00663337,"MEAN_MOTION_DDOT":0}]
